ORBCOMM FM37            
1 33064U 08031E   25032.86876924  .00003847  00000+0  54493-3 0  9999
2 33064  48.4381 266.5653 0005993 155.1595 311.4709 14.78855538894017
ORBCOMM FM40            
1 33065U 08031F   25032.84247307  .00004937  00000+0  65952-3 0  9998
2 33065  48.4398 252.8743 0007532 166.3435 303.3649 14.80842232894093
VESSELSAT 1             
1 37840U 11058C   25032.77593498  .00000497  00000+0  12670-3 0  9999
2 37840  19.9597 193.2358 0013691 136.7682 223.3798 14.11302727687157
ORBCOMM FM109           
1 40086U 14040A   25032.77569574  .00001870  00000+0  44188-3 0  9992
2 40086  47.0031 295.6473 0001347  68.3876 291.7153 14.57758149561308
ORBCOMM FM107           
1 40087U 14040B   25032.19335544  .00001712  00000+0  40717-3 0  9996
2 40087  47.0060 299.4053 0001325   4.0628 356.0268 14.57817779561290
ORBCOMM FM106           
1 40088U 14040C   25032.62995790  .00003259  00000+0  58287-3 0  9999
2 40088  47.0593 130.2173 0016843 161.7143 198.4356 14.68818222563543
ORBCOMM FM111           
1 40089U 14040D   25032.31546045  .00006601  00000+0  78292-3 0  9993
2 40089  47.0035 359.9238 0031007 263.7528  95.9836 14.84991820570025
ORBCOMM FM104           
1 40090U 14040E   25032.78915425  .00001755  00000+0  42995-3 0  9994
2 40090  47.0066 328.5944 0017140 306.3696  53.5607 14.56271483560883
